{
  "type": "FeatureCollection",
  "features": [
    {
      "type": "Feature",
      "properties": {
        "norad_id": 32440,
        "name": "FENGYUN 1C DEB",
        "group": "fengyun-1c-debris",
        "lat": 60.246027700159935,
        "lon": -168.84586161233312,
        "alt_km": 793.1524301819081,
        "timestamp": "2025-12-18T15:47:11.509710+00:00",
        "meta_object_name": "FENGYUN 1C DEB",
        "meta_object_id": "1999-025DBC",
        "meta_epoch": "2025-12-12T07:47:51.906912",
        "meta_mean_motion": 13.6125644,
        "meta_eccentricity": 0.03219473,
        "meta_inclination": 99.1542,
        "meta_ra_of_asc_node": 201.5922,
        "meta_arg_of_pericenter": 91.933,
        "meta_mean_anomaly": 271.871,
        "meta_ephemeris_type": 0,
        "meta_classification_type": "U",
        "meta_norad_cat_id": 32440,
        "meta_element_set_no": 999,
        "meta_rev_at_epoch": 60280,
        "meta_bstar": 0.0043210943,
        "meta_mean_motion_dot": 4.61e-05,
        "meta_mean_motion_ddot": 0,
        "tle_line1": "1 32440U 99025DBC 25346.32490633  .00004610  00000+0  43211-2 0  9991",
        "tle_line2": "2 32440  99.1542 201.5922 0321947  91.9330 271.8710 13.61256440602801"
      },
      "geometry": {
        "type": "Point",
        "coordinates": [
          -168.84586161233312,
          60.246027700159935
        ]
      }
    },
    {
      "type": "Feature",
      "properties": {
        "norad_id": 32447,
        "name": "FENGYUN 1C DEB",
        "group": "fengyun-1c-debris",
        "lat": -33.02017708397822,
        "lon": 14.473013883499364,
        "alt_km": 882.7175818367841,
        "timestamp": "2025-12-18T15:47:11.509720+00:00",
        "meta_object_name": "FENGYUN 1C DEB",
        "meta_object_id": "1999-025DBK",
        "meta_epoch": "2025-12-09T20:22:18.261408",
        "meta_mean_motion": 13.96013309,
        "meta_eccentricity": 0.00800272,
        "meta_inclination": 98.9313,
        "meta_ra_of_asc_node": 0.0649,
        "meta_arg_of_pericenter": 49.1812,
        "meta_mean_anomaly": 311.6255,
        "meta_ephemeris_type": 0,
        "meta_classification_type": "U",
        "meta_norad_cat_id": 32447,
        "meta_element_set_no": 999,
        "meta_rev_at_epoch": 67838,
        "meta_bstar": 0.00036340481,
        "meta_mean_motion_dot": 4.69e-06,
        "meta_mean_motion_ddot": 0,
        "tle_line1": "1 32447U 99025DBK 25343.84882247  .00000469  00000+0  36340-3 0  9992",
        "tle_line2": "2 32447  98.9313   0.0649 0080027  49.1812 311.6255 13.96013309678386"
      },
      "geometry": {
        "type": "Point",
        "coordinates": [
          14.473013883499364,
          -33.02017708397822
        ]
      }
    },
    {
      "type": "Feature",
      "properties": {
        "norad_id": 32451,
        "name": "FENGYUN 1C DEB",
        "group": "fengyun-1c-debris",
        "lat": 28.54907478014582,
        "lon": 158.31488864839636,
        "alt_km": 819.4803120026972,
        "timestamp": "2025-12-18T15:47:11.509730+00:00",
        "meta_object_name": "FENGYUN 1C DEB",
        "meta_object_id": "1999-025DBP",
        "meta_epoch": "2025-12-15T17:47:04.547904",
        "meta_mean_motion": 13.86588617,
        "meta_eccentricity": 0.01851329,
        "meta_inclination": 99.9706,
        "meta_ra_of_asc_node": 329.7162,
        "meta_arg_of_pericenter": 187.005,
        "meta_mean_anomaly": 172.8511,
        "meta_ephemeris_type": 0,
        "meta_classification_type": "U",
        "meta_norad_cat_id": 32451,
        "meta_element_set_no": 999,
        "meta_rev_at_epoch": 61806,
        "meta_bstar": 0.001782357,
        "meta_mean_motion_dot": 2.321e-05,
        "meta_mean_motion_ddot": 0,
        "tle_line1": "1 32451U 99025DBP 25349.74102486  .00002321  00000+0  17824-2 0  9996",
        "tle_line2": "2 32451  99.9706 329.7162 0185132 187.0050 172.8511 13.86588617618067"
      },
      "geometry": {
        "type": "Point",
        "coordinates": [
          158.31488864839636,
          28.54907478014582
        ]
      }
    },
    {
      "type": "Feature",
      "properties": {
        "norad_id": 32453,
        "name": "FENGYUN 1C DEB",
        "group": "fengyun-1c-debris",
        "lat": 40.10640087918344,
        "lon": -105.46577346040968,
        "alt_km": 942.3824677728162,
        "timestamp": "2025-12-18T15:47:11.509740+00:00",
        "meta_object_name": "FENGYUN 1C DEB",
        "meta_object_id": "1999-025DBR",
        "meta_epoch": "2025-12-17T00:12:08.739936",
        "meta_mean_motion": 14.02261172,
        "meta_eccentricity": 0.00962487,
        "meta_inclination": 99.3722,
        "meta_ra_of_asc_node": 260.8349,
        "meta_arg_of_pericenter": 194.1493,
        "meta_mean_anomaly": 165.6972,
        "meta_ephemeris_type": 0,
        "meta_classification_type": "U",
        "meta_norad_cat_id": 32453,
        "meta_element_set_no": 999,
        "meta_rev_at_epoch": 93488,
        "meta_bstar": 0.00047652067,
        "meta_mean_motion_dot": 7.13e-06,
        "meta_mean_motion_ddot": 0,
        "tle_line1": "1 32453U 99025DBR 25351.00843449  .00000713  00000+0  47652-3 0  9997",
        "tle_line2": "2 32453  99.3722 260.8349 0096248 194.1493 165.6972 14.02261172934887"
      },
      "geometry": {
        "type": "Point",
        "coordinates": [
          -105.46577346040968,
          40.10640087918344
        ]
      }
    },
    {
      "type": "Feature",
      "properties": {
        "norad_id": 32455,
        "name": "FENGYUN 1C DEB",
        "group": "fengyun-1c-debris",
        "lat": -76.09686409946434,
        "lon": -50.757777166050204,
        "alt_km": 1039.6957329709785,
        "timestamp": "2025-12-18T15:47:11.509751+00:00",
        "meta_object_name": "FENGYUN 1C DEB",
        "meta_object_id": "1999-025DBT",
        "meta_epoch": "2025-12-15T19:17:51.115776",
        "meta_mean_motion": 13.92483124,
        "meta_eccentricity": 0.02358922,
        "meta_inclination": 101.7332,
        "meta_ra_of_asc_node": 182.7306,
        "meta_arg_of_pericenter": 137.6652,
        "meta_mean_anomaly": 224.2971,
        "meta_ephemeris_type": 0,
        "meta_classification_type": "U",
        "meta_norad_cat_id": 32455,
        "meta_element_set_no": 999,
        "meta_rev_at_epoch": 64458,
        "meta_bstar": 0.0013497912,
        "meta_mean_motion_dot": 2.12e-05,
        "meta_mean_motion_ddot": 0,
        "tle_line1": "1 32455U 99025DBT 25349.80406384  .00002120  00000+0  13498-2 0  9991",
        "tle_line2": "2 32455 101.7332 182.7306 0235892 137.6652 224.2971 13.92483124644585"
      },
      "geometry": {
        "type": "Point",
        "coordinates": [
          -50.757777166050204,
          -76.09686409946434
        ]
      }
    },
    {
      "type": "Feature",
      "properties": {
        "norad_id": 32456,
        "name": "FENGYUN 1C DEB",
        "group": "fengyun-1c-debris",
        "lat": 5.709879191112846,
        "lon": 133.62114665082058,
        "alt_km": 1377.7470663535905,
        "timestamp": "2025-12-18T15:47:11.509761+00:00",
        "meta_object_name": "FENGYUN 1C DEB",
        "meta_object_id": "1999-025DBU",
        "meta_epoch": "2025-12-17T03:48:04.533120",
        "meta_mean_motion": 13.35640436,
        "meta_eccentricity": 0.03794971,
        "meta_inclination": 103.6656,
        "meta_ra_of_asc_node": 133.0133,
        "meta_arg_of_pericenter": 216.4895,
        "meta_mean_anomaly": 140.98,
        "meta_ephemeris_type": 0,
        "meta_classification_type": "U",
        "meta_norad_cat_id": 32456,
        "meta_element_set_no": 999,
        "meta_rev_at_epoch": 60675,
        "meta_bstar": 0.0016364212,
        "meta_mean_motion_dot": 1.184e-05,
        "meta_mean_motion_ddot": 0,
        "tle_line1": "1 32456U 99025DBU 25351.15838580  .00001184  00000+0  16364-2 0  9994",
        "tle_line2": "2 32456 103.6656 133.0133 0379497 216.4895 140.9800 13.35640436606758"
      },
      "geometry": {
        "type": "Point",
        "coordinates": [
          133.62114665082058,
          5.709879191112846
        ]
      }
    },
    {
      "type": "Feature",
      "properties": {
        "norad_id": 32458,
        "name": "FENGYUN 1C DEB",
        "group": "fengyun-1c-debris",
        "lat": -25.647635020634176,
        "lon": -171.2874852990664,
        "alt_km": 715.6516197692226,
        "timestamp": "2025-12-18T15:47:11.509771+00:00",
        "meta_object_name": "FENGYUN 1C DEB",
        "meta_object_id": "1999-025DBW",
        "meta_epoch": "2025-12-17T07:38:45.791520",
        "meta_mean_motion": 14.62340298,
        "meta_eccentricity": 0.00400557,
        "meta_inclination": 99.0455,
        "meta_ra_of_asc_node": 11.634,
        "meta_arg_of_pericenter": 359.8936,
        "meta_mean_anomaly": 0.2248,
        "meta_ephemeris_type": 0,
        "meta_classification_type": "U",
        "meta_norad_cat_id": 32458,
        "meta_element_set_no": 999,
        "meta_rev_at_epoch": 67856,
        "meta_bstar": 0.0011308111,
        "meta_mean_motion_dot": 5.724e-05,
        "meta_mean_motion_ddot": 0,
        "tle_line1": "1 32458U 99025DBW 25351.31858555  .00005724  00000+0  11308-2 0  9995",
        "tle_line2": "2 32458  99.0455  11.6340 0040055 359.8936   0.2248 14.62340298678565"
      },
      "geometry": {
        "type": "Point",
        "coordinates": [
          -171.2874852990664,
          -25.647635020634176
        ]
      }
    }
  ]
}